[{"OBJECT_NAME":"STARLINK-30215","OBJECT_ID":"2023-105R","EPOCH":"2026-03-09T22:00:01.999584","MEAN_MOTION":15.21884858,"ECCENTRICITY":0.00010316,"INCLINATION":42.9992,"RA_OF_ASC_NODE":258.6075,"ARG_OF_PERICENTER":307.4613,"MEAN_ANOMALY":139.0312,"EPHEMERIS_TYPE":0,"CLASSIFICATION_TYPE":"U","NORAD_CAT_ID":57445,"ELEMENT_SET_NO":999,"REV_AT_EPOCH":578,"BSTAR":0.0053865498,"MEAN_MOTION_DOT":0.00126903,"MEAN_MOTION_DDOT":0},{"OBJECT_NAME":"YAOGAN-43 02D","OBJECT_ID":"2024-156D","EPOCH":"2026-03-09T13:08:17.964960","MEAN_MOTION":15.23237701,"ECCENTRICITY":0.000368,"INCLINATION":34.992,"RA_OF_ASC_NODE":104.6408,"ARG_OF_PERICENTER":78.2879,"MEAN_ANOMALY":281.8248,"EPHEMERIS_TYPE":0,"CLASSIFICATION_TYPE":"U","NORAD_CAT_ID":60948,"ELEMENT_SET_NO":999,"REV_AT_EPOCH":8424,"BSTAR":0.00047394,"MEAN_MOTION_DOT":0.0001148,"MEAN_MOTION_DDOT":0}]
